NORAD_CAT_ID,OBJECT_NAME,OBJECT_TYPE,EPOCH,MEAN_MOTION,ECCENTRICITY,INCLINATION,RA_OF_ASC_NODE,ARG_OF_PERICENTER,MEAN_ANOMALY,BSTAR,MEAN_MOTION_DOT,MEAN_MOTION_DDOT,TLE_LINE0,TLE_LINE1,TLE_LINE2,SEMIMAJOR_AXIS,PERIOD,APOGEE,PERIGEE,DECAYED
51978.0,STARLINK-3666,PAYLOAD,2024-08-12 23:16:38,15.08842945,0.0001285,53.2151,94.6712,91.0948,269.0191,0.0012536,0.00019721,0.0,0 STARLINK-3666,1 51978U 22025Y   24225.96988629  .00019721  00000-0  12536-2 0  9992,2 51978  53.2151  94.6712 0001285  91.0948 269.0191 15.08842945135536,6917.871,95.437,540.625,538.847,0.0
51978.0,STARLINK-3666,PAYLOAD,2024-08-13 08:48:59,15.08748255,0.0001387,53.2153,92.8874,101.9659,258.1489,-0.0016599,-0.00026542,0.0,0 STARLINK-3666,1 51978U 22025Y   24226.36736056 -.00026542  00000-0 -16599-2 0  9996,2 51978  53.2153  92.8874 0001387 101.9659 258.1489 15.08748255135594,6918.161,95.443,540.985,539.066,0.0
51978.0,STARLINK-3666,PAYLOAD,2024-08-13 21:32:05,15.08823924,0.0001319,53.2157,90.5086,73.9598,286.1539,0.0014187,0.00022353,0.0,0 STARLINK-3666,1 51978U 22025Y   24226.89728477  .00022353  00000-0  14187-2 0  9997,2 51978  53.2157  90.5086 0001319  73.9598 286.1539 15.08823924135676,6917.93,95.439,540.707,538.882,0.0
51978.0,STARLINK-3666,PAYLOAD,2024-08-14 00:42:51,15.08829443,0.0001392,53.2155,89.9133,86.5442,273.571,0.0014209,0.00022391,0.0,0 STARLINK-3666,1 51978U 22025Y   24227.02976519  .00022391  00000-0  14209-2 0  9992,2 51978  53.2155  89.9133 0001392  86.5442 273.5710 15.08829443134603,6917.913,95.438,540.741,538.815,0.0
51978.0,STARLINK-3666,PAYLOAD,2024-08-14 21:22:51,15.08858146,0.0001331,53.216,86.0469,89.1949,270.9196,0.00070348,0.00010931,0.0,0 STARLINK-3666,1 51978U 22025Y   24227.89087808  .00010931  00000-0  70348-3 0  9995,2 51978  53.2160  86.0469 0001331  89.1949 270.9196 15.08858146134738,6917.825,95.436,540.611,538.769,0.0
51978.0,STARLINK-3666,PAYLOAD,2024-08-16 21:04:25,15.08863179,0.0001303,53.2171,77.1263,83.8613,276.2528,0.00062786,9.725e-05,0.0,0 STARLINK-3666,1 51978U 22025Y   24229.87807189  .00009725  00000-0  62786-3 0  9993,2 51978  53.2171  77.1263 0001303  83.8613 276.2528 15.08863179136126,6917.81,95.436,540.576,538.773,0.0
51978.0,STARLINK-3666,PAYLOAD,2024-08-18 00:05:59,15.08834927,0.0001266,53.2151,72.0716,85.3179,274.7958,-1.1643e-05,-4.73e-06,0.0,0 STARLINK-3666,1 51978U 22025Y   24231.00415637 -.00000473  00000-0 -11643-4 0  9994,2 51978  53.2151  72.0716 0001266  85.3179 274.7958 15.08834927136290,6917.896,95.438,540.637,538.885,0.0
51978.0,STARLINK-3666,PAYLOAD,2024-08-18 20:45:59,15.08843988,0.0001263,53.2152,68.2066,78.6287,281.4847,0.00023965,3.529e-05,0.0,0 STARLINK-3666,1 51978U 22025Y   24231.86527413  .00003529  00000-0  23965-3 0  9996,2 51978  53.2152  68.2066 0001263  78.6287 281.4847 15.08843988135331,6917.868,95.437,540.607,538.859,0.0
51978.0,STARLINK-3666,PAYLOAD,2024-08-19 12:39:51,15.08841656,0.0001839,53.2139,65.2328,87.9638,272.1565,5.3711e-05,5.67e-06,0.0,0 STARLINK-3666,1 51978U 22025Y   24232.52767376  .00000567  00000-0  53711-4 0  9996,2 51978  53.2139  65.2328 0001839  87.9638 272.1565 15.08841656135431,6917.875,95.437,541.013,538.468,0.0
51978.0,STARLINK-3666,PAYLOAD,2024-08-19 20:36:46,15.08833204,0.0001361,53.2151,63.7457,86.113,274.0018,-9.1612e-05,-1.745e-05,0.0,0 STARLINK-3666,1 51978U 22025Y   24232.85887708 -.00001745  00000-0 -91612-4 0  9997,2 51978  53.2151  63.7457 0001361  86.1130 274.0018 15.08833204136579,6917.901,95.438,540.708,538.825,0.0
51978.0,STARLINK-3666,PAYLOAD,2024-08-20 06:09:05,15.08841516,0.0001315,53.2153,61.9609,97.2329,262.8813,0.0001181,1.592e-05,0.0,0 STARLINK-3666,1 51978U 22025Y   24233.25631482  .00001592  00000-0  11810-3 0  9997,2 51978  53.2153  61.9609 0001315  97.2329 262.8813 15.08841516136632,6917.876,95.437,540.65,538.831,0.0
51978.0,STARLINK-3666,PAYLOAD,2024-08-20 20:27:33,15.0884694,0.0001439,53.2158,59.2844,86.0634,274.0523,0.00034341,5.183e-05,0.0,0 STARLINK-3666,1 51978U 22025Y   24233.85247528  .00005183  00000-0  34341-3 0  9991,2 51978  53.2158  59.2844 0001439  86.0634 274.0523 15.08846940135638,6917.859,95.437,540.72,538.729,0.0
51978.0,STARLINK-3666,PAYLOAD,2024-08-21 18:42:58,15.08839515,0.0001346,53.2161,55.1188,97.4075,262.707,0.0001624,2.298e-05,0.0,0 STARLINK-3666,1 51978U 22025Y   24234.77983866  .00002298  00000-0  16240-3 0  9997,2 51978  53.2161  55.1188 0001346  97.4075 262.7070 15.08839515135776,6917.882,95.438,540.678,538.816,0.0
51978.0,STARLINK-3666,PAYLOAD,2024-08-21 21:53:44,15.08838812,0.000136,53.2163,54.5246,95.807,264.3077,0.00015316,2.15e-05,0.0,0 STARLINK-3666,1 51978U 22025Y   24234.91231966  .00002150  00000-0  15316-3 0  9990,2 51978  53.2163  54.5246 0001360  95.8070 264.3077 15.08838812136886,6917.884,95.438,540.69,538.808,0.0
